{"type":"FeatureCollection","features":[{"type":"Feature","properties":{"zone":"WIC067","name":"Langlade"},"geometry":{"type":"Polygon","coordinates":[[[-89.3321,45.4696],[-89.2369,45.4685],[-89.1251,45.4673],[-89.0463,45.4647],[-88.9875,45.4651],[-88.9232,45.4523],[-88.9265,45.3919],[-88.9041,45.3783],[-88.8223,45.3782],[-88.7591,45.3783],[-88.6778,45.3787],[-88.6794,45.2626],[-88.6384,45.2048],[-88.6394,45.162],[-88.6403,45.1281],[-88.71,45.1173],[-88.8751,45.1175],[-88.9819,45.1014],[-88.9916,45.0291],[-89.0314,45.0295],[-89.113,45.0297],[-89.1963,45.0293],[-89.2239,45.0583],[-89.2242,45.1172],[-89.3508,45.1187],[-89.426,45.1555],[-89.425,45.2641],[-89.4247,45.3251],[-89.4248,45.4671],[-89.3751,45.4696],[-89.3321,45.4696]]]}},{"type":"Feature","properties":{"zone":"WIC069","name":"Lincoln"},"geometry":{"type":"Polygon","coordinates":[[[-89.5439,45.5562],[-89.4948,45.5554],[-89.4281,45.5468],[-89.4277,45.5224],[-89.4248,45.4671],[-89.4247,45.3251],[-89.425,45.2641],[-89.426,45.1555],[-89.4569,45.1195],[-89.5992,45.1196],[-89.7341,45.1199],[-89.8987,45.1202],[-90.045,45.1203],[-90.0451,45.1818],[-90.0465,45.2508],[-90.0468,45.3117],[-90.0425,45.368],[-90.0426,45.4627],[-90.0383,45.5551],[-89.9949,45.5552],[-89.8595,45.5552],[-89.8009,45.5554],[-89.6938,45.5557],[-89.5694,45.5559],[-89.5439,45.5562]]]}},{"type":"Feature","properties":{"zone":"WIC073","name":"Marathon"},"geometry":{"type":"Polygon","coordinates":[[[-90.1508,45.1204],[-90.021,45.1201],[-89.8783,45.12],[-89.6623,45.1197],[-89.5495,45.1198],[-89.4254,45.1192],[-89.2276,45.1186],[-89.2241,45.0675],[-89.2238,45.0292],[-89.2235,45.0004],[-89.2239,44.9248],[-89.2241,44.8512],[-89.2244,44.8033],[-89.2243,44.7248],[-89.2244,44.6815],[-89.2505,44.6815],[-89.3751,44.6829],[-89.513,44.6859],[-89.7267,44.6848],[-89.846,44.6849],[-90.056,44.6854],[-90.1473,44.6853],[-90.2229,44.6853],[-90.3163,44.6996],[-90.3169,44.761],[-90.316,44.8417],[-90.3152,44.8744],[-90.3155,44.9244],[-90.3165,44.945],[-90.3156,45.0044],[-90.2586,45.0336],[-90.1978,45.1205],[-90.1508,45.1204]]]}},{"type":"Feature","properties":{"zone":"WIC085","name":"Oneida"},"geometry":{"type":"Polygon","coordinates":[[[-89.3006,45.9015],[-89.3008,45.8616],[-89.2665,45.8612],[-89.2363,45.8611],[-89.2246,45.8604],[-89.1856,45.8572],[-89.1764,45.8709],[-89.178,45.8988],[-89.1548,45.8973],[-89.0799,45.8955],[-89.0475,45.8888],[-89.0473,45.8189],[-89.0473,45.7237],[-89.0475,45.651],[-89.047,45.599],[-89.0465,45.4926],[-89.1102,45.4667],[-89.1795,45.4683],[-89.2501,45.469],[-89.3751,45.4696],[-89.4248,45.4671],[-89.4277,45.5224],[-89.4281,45.5468],[-89.4948,45.5554],[-89.5439,45.5562],[-89.6644,45.5557],[-89.7594,45.5557],[-89.8163,45.5557],[-89.9405,45.5552],[-90.0105,45.5552],[-90.0438,45.5579],[-90.0437,45.5864],[-90.0429,45.6562],[-90.0444,45.7497],[-90.0429,45.8977],[-89.9208,45.8982],[-89.7314,45.8984],[-89.6369,45.8989],[-89.5878,45.8988],[-89.4726,45.8984],[-89.3624,45.8987],[-89.3006,45.9015]]]}},{"type":"Feature","properties":{"zone":"WIC097","name":"Portage"},"geometry":{"type":"Polygon","coordinates":[[[-89.4907,44.6858],[-89.3454,44.6814],[-89.2441,44.6812],[-89.2236,44.6636],[-89.2231,44.5688],[-89.2233,44.5295],[-89.2237,44.4176],[-89.2244,44.3424],[-89.3146,44.2437],[-89.4267,44.244],[-89.5237,44.2444],[-89.5702,44.2453],[-89.598,44.2455],[-89.6985,44.2471],[-89.7245,44.2704],[-89.7246,44.3738],[-89.7265,44.4523],[-89.7266,44.5112],[-89.8379,44.5114],[-89.8446,44.5547],[-89.8454,44.6273],[-89.8452,44.6707],[-89.7867,44.6847],[-89.556,44.6858],[-89.4907,44.6858]]]}},{"type":"Feature","properties":{"zone":"WIC115","name":"Shawano"},"geometry":{"type":"Polygon","coordinates":[[[-89.0531,45.0298],[-89.0124,45.0293],[-88.9814,45.0143],[-88.9814,44.9428],[-88.891,44.943],[-88.8565,44.943],[-88.7357,44.9432],[-88.7355,44.9141],[-88.7362,44.857],[-88.622,44.8564],[-88.4922,44.8553],[-88.3889,44.8546],[-88.3504,44.8541],[-88.2494,44.8522],[-88.252,44.7815],[-88.2458,44.7173],[-88.2429,44.683],[-88.2526,44.6744],[-88.2521,44.6669],[-88.2429,44.6603],[-88.2452,44.5852],[-88.3258,44.5871],[-88.4121,44.5888],[-88.4884,44.5895],[-88.5721,44.5906],[-88.6064,44.6086],[-88.6468,44.6781],[-88.7033,44.6788],[-88.7515,44.6792],[-88.8374,44.6794],[-88.9718,44.6798],[-89.0116,44.6798],[-89.2244,44.6815],[-89.2243,44.7248],[-89.2244,44.8033],[-89.2241,44.8512],[-89.2239,44.9248],[-89.2235,45.0004],[-89.2238,45.0292],[-89.1237,45.0295],[-89.0531,45.0298]]]}},{"type":"Feature","properties":{"zone":"WIC119","name":"Taylor"},"geometry":{"type":"Polygon","coordinates":[[[-90.0423,45.3819],[-90.0448,45.3546],[-90.0459,45.2752],[-90.0455,45.2145],[-90.0439,45.1278],[-90.0528,45.1202],[-90.1978,45.1205],[-90.2586,45.0336],[-90.3755,45.0322],[-90.4337,45.0308],[-90.732,45.0313],[-90.9232,45.0313],[-90.9237,45.073],[-90.9231,45.1188],[-90.9258,45.2051],[-90.9257,45.2563],[-90.9252,45.2796],[-90.9252,45.3136],[-90.925,45.375],[-90.8842,45.3788],[-90.8194,45.3784],[-90.6788,45.3778],[-90.5631,45.3774],[-90.4824,45.3769],[-90.3751,45.3791],[-90.2696,45.3809],[-90.1666,45.3815],[-90.1367,45.3823],[-90.0423,45.3819]]]}},{"type":"Feature","properties":{"zone":"WIC141","name":"Wood"},"geometry":{"type":"Polygon","coordinates":[[[-89.9464,44.6847],[-89.8452,44.6707],[-89.8454,44.6273],[-89.8446,44.5547],[-89.8379,44.5114],[-89.7266,44.5112],[-89.7265,44.4523],[-89.7246,44.3738],[-89.7245,44.2704],[-89.7653,44.2484],[-89.858,44.2494],[-89.9192,44.2492],[-89.9965,44.2488],[-90.1607,44.2491],[-90.2023,44.2489],[-90.2501,44.2484],[-90.3181,44.2492],[-90.3177,44.3097],[-90.3171,44.3479],[-90.3171,44.3949],[-90.3158,44.4999],[-90.3158,44.5636],[-90.3162,44.6066],[-90.3162,44.6852],[-90.1974,44.6854],[-90.1251,44.6851],[-89.9464,44.6847]]]}}]}