{"type":"FeatureCollection","features":[{"type":"Feature","properties":{"gauge":"05395000","river":"wisconsin","stem":true},"geometry":{"type":"LineString","coordinates":[[-89.80541,45.23924],[-89.80461,45.23859],[-89.80395,45.23748],[-89.8045,45.23359],[-89.80399,45.23289],[-89.80371,45.23179],[-89.80179,45.22968],[-89.80017,45.22649],[-89.79879,45.22494],[-89.79484,45.22206],[-89.79265,45.22088],[-89.78848,45.22041],[-89.78778,45.22009],[-89.78683,45.21966],[-89.78559,45.21852],[-89.78358,45.21546],[-89.78179,45.21402],[-89.77799,45.21371],[-89.77424,45.21286],[-89.77024,45.21268],[-89.76827,45.21326],[-89.76579,45.21315],[-89.76449,45.21268],[-89.76395,45.21224],[-89.76289,45.21139],[-89.76121,45.21091],[-89.75957,45.21002],[-89.75654,45.20758],[-89.75552,45.20618],[-89.75529,45.20455],[-89.75424,45.20355],[-89.75392,45.20286],[-89.75443,45.19937],[-89.754,45.19888],[-89.75195,45.19723],[-89.75217,45.19494],[-89.75388,45.193],[-89.75554,45.19159],[-89.75559,45.18902],[-89.75562,45.18875],[-89.7547,45.18789],[-89.7535,45.18676],[-89.75258,45.18645],[-89.75095,45.18543],[-89.75049,45.18419],[-89.74942,45.18333],[-89.74876,45.18222],[-89.7461,45.17993],[-89.74408,45.17902],[-89.7409,45.1782],[-89.7369,45.17801],[-89.7361,45.17838],[-89.73475,45.17846],[-89.73315,45.17919],[-89.73219,45.17928],[-89.72913,45.1813],[-89.72797,45.18138],[-89.72556,45.18262],[-89.72522,45.18423],[-89.72338,45.18549],[-89.7216,45.18609],[-89.7195,45.18599],[-89.71748,45.18508],[-89.71515,45.18335],[-89.71519,45.18092],[-89.71581,45.18041],[-89.71591,45.17933],[-89.71504,45.17848],[-89.71404,45.17681],[-89.70993,45.17378],[-89.70895,45.17401],[-89.70359,45.17403],[-89.70099,45.17512],[-89.69984,45.1752],[-89.69864,45.17569],[-89.6975,45.17563],[-89.69612,45.17611],[-89.6942,45.17615],[-89.69242,45.17675],[-89.69185,45.17672],[-89.69034,45.17753],[-89.68947,45.17755],[-89.68867,45.17792],[-89.68752,45.178],[-89.68653,45.17836],[-89.68538,45.17831],[-89.68311,45.17806],[-89.68218,45.17775],[-89.67969,45.17777],[-89.67761,45.17754],[-89.6743,45.17603],[-89.67185,45.17564],[-89.66649,45.17566],[-89.6655,45.17602],[-89.66317,45.17632],[-89.65822,45.17608],[-89.65767,45.17579],[-89.65678,45.17507],[-89.65691,45.17372],[-89.65777,45.17268],[-89.65809,45.17135],[-89.65728,45.16982],[-89.6564,45.16897],[-89.65677,45.16709],[-89.65526,45.16486],[-89.65516,45.16391],[-89.65449,45.16293],[-89.6539,45.16101],[-89.65257,45.15892],[-89.6522,45.15674],[-89.65144,45.15468],[-89.6512,45.15318],[-89.65151,45.14995],[-89.65224,45.14823],[-89.65214,45.14728],[-89.65288,45.14556],[-89.65308,45.1434],[-89.65227,45.14188],[-89.65105,45.1406],[-89.64996,45.14001],[-89.64808,45.13965],[-89.64535,45.13817],[-89.64363,45.13823],[-89.64223,45.13884],[-89.63231,45.1385],[-89.63046,45.13787],[-89.62868,45.13644],[-89.62741,45.13367],[-89.62734,45.13245],[-89.62789,45.13072],[-89.62856,45.12967],[-89.62879,45.12725],[-89.63221,45.1235],[-89.63328,45.1203],[-89.63168,45.11901],[-89.63118,45.11818],[-89.63127,45.11723],[-89.62881,45.11394],[-89.62846,45.11264],[-89.62777,45.1118],[-89.62715,45.11028],[-89.62692,45.10865],[-89.62604,45.10793],[-89.62605,45.10577],[-89.62672,45.10472],[-89.62702,45.10163],[-89.62749,45.1007],[-89.63008,45.09758],[-89.63215,45.09592],[-89.63301,45.09488],[-89.63607,45.09287],[-89.63734,45.09158],[-89.63897,45.08855],[-89.63827,45.08784],[-89.63836,45.08487],[-89.63729,45.08401],[-89.63292,45.0838],[-89.63181,45.08334],[-89.62991,45.08325],[-89.62798,45.08343],[-89.62651,45.08383],[-89.6247,45.08382],[-89.62339,45.08348],[-89.62142,45.08204],[-89.62074,45.08119],[-89.62077,45.0789],[-89.62226,45.07721],[-89.62348,45.07646],[-89.62818,45.07533],[-89.63426,45.0717],[-89.63504,45.07147],[-89.6373,45.06982],[-89.63869,45.06732],[-89.63898,45.06422],[-89.6387,45.06313],[-89.64027,45.06064],[-89.64152,45.05962],[-89.64163,45.05942],[-89.64296,45.05847],[-89.64409,45.05663],[-89.64354,45.05545],[-89.64384,45.05324],[-89.64544,45.05048],[-89.64696,45.04852],[-89.64703,45.04785],[-89.64882,45.0451],[-89.64892,45.042],[-89.64963,45.04054],[-89.65006,45.04002],[-89.65248,45.03865],[-89.6558,45.03584],[-89.65711,45.03515],[-89.65862,45.03435],[-89.6623,45.03385],[-89.66388,45.03325],[-89.66429,45.03097],[-89.66398,45.02812]]}},{"type":"Feature","properties":{"gauge":"05398000","river":"wisconsin","stem":true},"geometry":{"type":"LineString","coordinates":[[-89.66398,45.02812],[-89.66241,45.02656],[-89.66045,45.02511],[-89.65843,45.02421],[-89.65694,45.02386],[-89.65552,45.02272],[-89.65459,45.0224],[-89.65076,45.02249],[-89.64833,45.02197],[-89.64557,45.02089],[-89.64251,45.02088],[-89.63995,45.02171],[-89.63821,45.0219],[-89.63623,45.02072],[-89.63232,45.01756],[-89.63132,45.01603],[-89.63104,45.01494],[-89.63036,45.01409],[-89.63008,45.013],[-89.62736,45.00949],[-89.62671,45.00825],[-89.62551,45.00684],[-89.62551,45.00481],[-89.62612,45.00443],[-89.62664,45.00297],[-89.62726,45.00246],[-89.62728,45.0003],[-89.62701,44.99997],[-89.62694,44.99988],[-89.62658,44.99757],[-89.62391,44.99555],[-89.62371,44.99365],[-89.62192,44.99235],[-89.62201,44.99141],[-89.6208,44.99013],[-89.62086,44.98743],[-89.6214,44.98584],[-89.62142,44.98557],[-89.62338,44.98309],[-89.62746,44.98032],[-89.62852,44.97915],[-89.63043,44.97809],[-89.63075,44.97777],[-89.63221,44.97649],[-89.63289,44.97531],[-89.63305,44.97369],[-89.63219,44.97271],[-89.63177,44.96904],[-89.6319,44.96769],[-89.63282,44.96598],[-89.63445,44.96498],[-89.63533,44.96367],[-89.63542,44.96273],[-89.63451,44.96025],[-89.63461,44.95918],[-89.63568,44.95801],[-89.63591,44.95559],[-89.63631,44.95534],[-89.63584,44.95424],[-89.6361,44.95357],[-89.63224,44.95001],[-89.63078,44.94927],[-89.63002,44.94923],[-89.62943,44.94947],[-89.62849,44.94929],[-89.62721,44.94869],[-89.62514,44.94846],[-89.62424,44.94788],[-89.6239,44.94745],[-89.62438,44.94437],[-89.6262,44.94324],[-89.63129,44.94186],[-89.63229,44.94137],[-89.63574,44.93924],[-89.63699,44.93808],[-89.63708,44.93716],[-89.63708,44.93714],[-89.63716,44.93633],[-89.64,44.93458],[-89.64169,44.93479],[-89.64227,44.93468],[-89.6447,44.93318],[-89.64509,44.93117],[-89.64262,44.92903],[-89.63771,44.9265],[-89.6361,44.92534],[-89.63499,44.92502],[-89.62932,44.92043],[-89.62952,44.91827],[-89.63114,44.91727],[-89.632,44.91657],[-89.63311,44.91669],[-89.63703,44.91552],[-89.63761,44.91542],[-89.63923,44.91441],[-89.64158,44.91182],[-89.64196,44.90982],[-89.64124,44.90735],[-89.63893,44.90549],[-89.63114,44.90525],[-89.62864,44.90351],[-89.62826,44.90349],[-89.62772,44.90306],[-89.62714,44.90317],[-89.62457,44.9021],[-89.62103,44.89923],[-89.62046,44.8992],[-89.61923,44.8982],[-89.61921,44.89778],[-89.61918,44.89671],[-89.62039,44.89596],[-89.62315,44.89501],[-89.62659,44.89288],[-89.62682,44.89248],[-89.62844,44.89148],[-89.62848,44.89108],[-89.62996,44.88953],[-89.63644,44.88551],[-89.63771,44.88422],[-89.63815,44.88357],[-89.63833,44.88168],[-89.63804,44.88073],[-89.63805,44.87856],[-89.63901,44.87645],[-89.63919,44.87457],[-89.63972,44.87297],[-89.64068,44.87086],[-89.642,44.86903],[-89.64443,44.86752],[-89.64681,44.86656],[-89.65068,44.86593],[-89.6537,44.86418],[-89.65457,44.86301],[-89.65704,44.8611],[-89.65956,44.85865],[-89.66073,44.85628],[-89.66312,44.85315],[-89.66565,44.84854],[-89.66717,44.84659]]}},{"type":"Feature","properties":{"gauge":"05398100","river":"wisconsin","stem":true},"geometry":{"type":"LineString","coordinates":[[-89.66717,44.84659],[-89.66821,44.84569],[-89.67144,44.84368],[-89.67281,44.84334],[-89.67502,44.8421],[-89.68018,44.83991],[-89.6824,44.83853],[-89.68367,44.83724],[-89.68435,44.83605],[-89.68446,44.83484],[-89.68638,44.83264],[-89.68667,44.83157],[-89.68815,44.83002],[-89.68916,44.82939],[-89.69189,44.82669],[-89.69362,44.82447],[-89.69388,44.82178],[-89.69367,44.81988],[-89.6934,44.81879],[-89.69289,44.81809],[-89.69237,44.8155],[-89.6919,44.8144],[-89.69121,44.81369],[-89.69142,44.81141],[-89.69189,44.81048],[-89.69251,44.80997],[-89.69372,44.80922],[-89.6949,44.80887],[-89.69641,44.80894],[-89.69736,44.80899],[-89.69817,44.80848],[-89.69884,44.80743],[-89.69743,44.80615],[-89.69652,44.8057],[-89.69383,44.80396],[-89.69268,44.80404],[-89.69032,44.80487],[-89.68729,44.80473],[-89.68654,44.80456],[-89.68495,44.80327],[-89.68529,44.80166],[-89.68776,44.79975],[-89.69004,44.79973],[-89.69149,44.79946],[-89.69503,44.79726],[-89.69507,44.79483],[-89.69547,44.79256],[-89.69648,44.79193],[-89.69805,44.79146],[-89.70229,44.78883],[-89.70251,44.78857],[-89.7022,44.78774],[-89.70247,44.78695],[-89.70307,44.78657],[-89.70402,44.78661],[-89.70579,44.78602],[-89.7072,44.78514],[-89.70747,44.78435],[-89.7095,44.78296],[-89.7133,44.78097],[-89.71326,44.78036],[-89.71474,44.77881],[-89.71502,44.77687],[-89.71474,44.77578],[-89.71404,44.77507],[-89.71421,44.77332],[-89.71493,44.77173],[-89.71697,44.77021],[-89.71953,44.76925],[-89.72243,44.76885],[-89.72413,44.76893],[-89.72701,44.76866],[-89.72859,44.76805],[-89.73,44.76718],[-89.73049,44.76396],[-89.73089,44.76371],[-89.73085,44.76208],[-89.73099,44.76061],[-89.73102,44.76034],[-89.72961,44.75906],[-89.72852,44.7586],[-89.72699,44.75866],[-89.72557,44.75954],[-89.72554,44.76197],[-89.72551,44.76224],[-89.72289,44.76387],[-89.72081,44.76377],[-89.7195,44.76344],[-89.71732,44.76239],[-89.71517,44.76094],[-89.71464,44.76051],[-89.71416,44.75955],[-89.71414,44.75837],[-89.71413,44.75779],[-89.71585,44.75571],[-89.71706,44.75496],[-89.71692,44.75441],[-89.71826,44.75231],[-89.71832,44.75164],[-89.71804,44.75055],[-89.71698,44.74969],[-89.71509,44.7496],[-89.71269,44.75084],[-89.71078,44.75088],[-89.70909,44.75067],[-89.70762,44.75019],[-89.70568,44.74851],[-89.70498,44.74791],[-89.7051,44.74656],[-89.7063,44.74594],[-89.70782,44.74602],[-89.71352,44.74399],[-89.71534,44.74286],[-89.7164,44.74169],[-89.71734,44.73161],[-89.71798,44.73083],[-89.71848,44.72748],[-89.71838,44.72653],[-89.71712,44.72377],[-89.71325,44.72035],[-89.71226,44.71882],[-89.70642,44.71409],[-89.70629,44.71354],[-89.70363,44.71139],[-89.69984,44.71135],[-89.69827,44.71181],[-89.69445,44.71406],[-89.68783,44.71375],[-89.68533,44.71201],[-89.68184,44.71063],[-89.67902,44.70834],[-89.67868,44.70792],[-89.67868,44.70589],[-89.68062,44.70342],[-89.68205,44.70241],[-89.68274,44.70109],[-89.68373,44.6925],[-89.67844,44.6882],[-89.67624,44.68728],[-89.67237,44.68602],[-89.6699,44.68401],[-89.66975,44.6836],[-89.67033,44.67742],[-89.66971,44.6759],[-89.66927,44.67251],[-89.66434,44.66836],[-89.65412,44.66787],[-89.65201,44.66615],[-89.65097,44.66516],[-89.65091,44.6651],[-89.64904,44.66331],[-89.64824,44.66179],[-89.64799,44.66043],[-89.64705,44.65822],[-89.64665,44.65645],[-89.64563,44.65518],[-89.64515,44.65422],[-89.64518,44.65395],[-89.64346,44.65198],[-89.64277,44.65026],[-89.6404,44.64819],[-89.6386,44.64513],[-89.6386,44.64311],[-89.6375,44.63873],[-89.63788,44.6347],[-89.64016,44.63063],[-89.64233,44.62776],[-89.64378,44.62445],[-89.64415,44.62056],[-89.64384,44.61973],[-89.644,44.61812],[-89.64402,44.61785],[-89.64333,44.61714],[-89.64293,44.61537],[-89.64074,44.61243],[-89.63979,44.61036],[-89.63843,44.60868],[-89.63619,44.60425],[-89.63641,44.60197],[-89.63713,44.60038],[-89.63795,44.59974],[-89.64328,44.59554],[-89.64859,44.5935],[-89.65014,44.59317],[-89.65145,44.59337],[-89.65246,44.59274],[-89.65656,44.59145],[-89.65777,44.5907],[-89.658,44.59031],[-89.6583,44.58708],[-89.65834,44.58668],[-89.65833,44.58276],[-89.6592,44.58159],[-89.65933,44.58025],[-89.65865,44.5794],[-89.65819,44.57817],[-89.65559,44.57561],[-89.65565,44.57494],[-89.65605,44.57469],[-89.65633,44.57376],[-89.65729,44.57266],[-89.65725,44.57205],[-89.65478,44.57004],[-89.65414,44.5688],[-89.65203,44.56708],[-89.65184,44.56504],[-89.65082,44.56378],[-89.64925,44.56236],[-89.64634,44.561],[-89.6444,44.55943],[-89.644,44.55765],[-89.64259,44.55651],[-89.64275,44.55476],[-89.64382,44.55346],[-89.64459,44.55134]]}},{"type":"Feature","properties":{"gauge":"05400760","river":"wisconsin","stem":true},"geometry":{"type":"LineString","coordinates":[[-89.64459,44.55134],[-89.64476,44.54959],[-89.6441,44.54848],[-89.64252,44.54719],[-89.64123,44.54672],[-89.63802,44.54657],[-89.63668,44.54678],[-89.62988,44.54645],[-89.62812,44.54502],[-89.62622,44.54506],[-89.62619,44.54533],[-89.62169,44.54485],[-89.61975,44.54529],[-89.61522,44.54508],[-89.61258,44.54292],[-89.61223,44.54264],[-89.61182,44.54086],[-89.61083,44.53933],[-89.61057,44.5381],[-89.60917,44.53682],[-89.6072,44.53362],[-89.60562,44.53233],[-89.60452,44.53188],[-89.5971,44.52612],[-89.59286,44.52484],[-89.58859,44.52193],[-89.5873,44.51958],[-89.58741,44.51837],[-89.58653,44.51765],[-89.58657,44.51639],[-89.58661,44.51482],[-89.58791,44.51313],[-89.58799,44.51232],[-89.5873,44.50959],[-89.58644,44.5086],[-89.58662,44.50672],[-89.58728,44.50581],[-89.58847,44.50519],[-89.59,44.50513],[-89.59074,44.5053],[-89.59246,44.50512],[-89.59367,44.50436],[-89.59456,44.50292],[-89.59491,44.50132],[-89.59438,44.50089],[-89.59446,44.49998],[-89.59447,44.49995],[-89.59414,44.49939],[-89.59326,44.49868],[-89.59136,44.49872],[-89.58889,44.49685],[-89.58909,44.4947],[-89.58663,44.49269],[-89.58421,44.49217],[-89.58312,44.49171],[-89.57901,44.49111],[-89.57705,44.4898],[-89.57708,44.48772],[-89.57709,44.48737],[-89.57448,44.48495],[-89.57381,44.48397],[-89.57339,44.48247],[-89.57513,44.48012],[-89.57503,44.47917],[-89.57543,44.4769],[-89.5735,44.47532],[-89.573,44.47462],[-89.57294,44.47125],[-89.57266,44.47015],[-89.57215,44.46959],[-89.57245,44.46738],[-89.57432,44.46673],[-89.57681,44.46644],[-89.57956,44.46536],[-89.58228,44.46468],[-89.58964,44.4649],[-89.59527,44.46544],[-89.60395,44.46586],[-89.6051,44.46564],[-89.60704,44.4652],[-89.60949,44.46329],[-89.6108,44.46146],[-89.61094,44.45999],[-89.61209,44.45788],[-89.61507,44.45641],[-89.61741,44.45571],[-89.61816,44.45574],[-89.61977,44.45474],[-89.62333,44.45316],[-89.62466,44.45309],[-89.62603,44.45261],[-89.62867,44.45274],[-89.63121,44.45394],[-89.63517,44.45413],[-89.63694,44.4534],[-89.64279,44.45368],[-89.64418,44.45294],[-89.64593,44.45248],[-89.6499,44.45254],[-89.65165,44.45208],[-89.65259,44.45213],[-89.65528,44.45172],[-89.65999,44.45194],[-89.66165,44.45242],[-89.66863,44.45276],[-89.67112,44.45247],[-89.67244,44.45253],[-89.67379,44.45219],[-89.68057,44.45265],[-89.68135,44.45241],[-89.68514,44.45233],[-89.689,44.45156],[-89.6926,44.4516],[-89.69386,44.45233],[-89.69857,44.45256],[-89.70297,44.45209],[-89.70598,44.45223],[-89.70698,44.45174],[-89.70968,44.45119],[-89.71177,44.45116],[-89.71427,44.45073],[-89.71693,44.45059],[-89.72029,44.44913],[-89.72313,44.44913],[-89.72367,44.44942],[-89.72706,44.44958],[-89.73168,44.44872],[-89.73226,44.44861],[-89.73327,44.44799],[-89.73865,44.44716],[-89.74001,44.44654],[-89.74161,44.44582],[-89.7439,44.44565],[-89.74507,44.4453],[-89.75229,44.44092],[-89.75598,44.43988],[-89.75653,44.44004],[-89.75848,44.43946],[-89.76396,44.43958],[-89.76748,44.43839],[-89.76999,44.43784],[-89.77158,44.43697],[-89.77432,44.43602],[-89.77653,44.43463],[-89.77768,44.4324],[-89.77849,44.43189],[-89.77939,44.43198],[-89.78093,44.43214],[-89.78334,44.43064],[-89.78337,44.43023],[-89.78563,44.42831],[-89.78628,44.4274],[-89.7879,44.42648],[-89.78868,44.42603],[-89.79029,44.42502],[-89.79222,44.42457],[-89.79466,44.4228],[-89.79623,44.4222],[-89.79763,44.42132],[-89.79818,44.41946],[-89.79922,44.41842],[-89.79938,44.41668],[-89.80003,44.41576],[-89.80386,44.41324],[-89.80491,44.41208],[-89.80541,44.41075],[-89.80605,44.40997],[-89.80806,44.40872],[-89.81018,44.40828],[-89.81352,44.40695],[-89.81662,44.40615],[-89.8189,44.40497],[-89.82043,44.40376],[-89.82194,44.40181],[-89.82217,44.39926],[-89.82301,44.39835],[-89.82374,44.3965],[-89.82415,44.39624],[-89.82406,44.39509],[-89.82398,44.39394],[-89.82606,44.39188],[-89.83185,44.38851],[-89.83312,44.38708],[-89.83366,44.38522],[-89.8345,44.38431],[-89.8346,44.38324],[-89.83504,44.38259],[-89.83805,44.3807],[-89.83982,44.37997],[-89.84142,44.37897],[-89.84246,44.37794],[-89.84346,44.37529],[-89.84456,44.37358],[-89.84539,44.37281],[-89.84588,44.37149],[-89.84728,44.37074],[-89.85011,44.37074],[-89.85318,44.37034],[-89.85458,44.36946],[-89.85586,44.3679],[-89.8559,44.36736],[-89.85771,44.36623],[-89.85916,44.36482],[-89.85946,44.36362],[-89.85981,44.3577],[-89.859,44.35618],[-89.8548,44.35247],[-89.85415,44.35123],[-89.85275,44.35009],[-89.85107,44.34772],[-89.85079,44.34662],[-89.84958,44.34535]]}},{"type":"Feature","properties":{"gauge":"05394500","river":"prairie","stem":false},"geometry":{"type":"LineString","coordinates":[[-89.53309,45.30176],[-89.53403,45.30036],[-89.53449,45.29812],[-89.53478,45.29735],[-89.53572,45.29648],[-89.53734,45.29474],[-89.5378,45.29413],[-89.53893,45.29376],[-89.54175,45.29452],[-89.5434,45.29509],[-89.54625,45.29377],[-89.54612,45.29317],[-89.54463,45.29221],[-89.54437,45.29073],[-89.5447,45.28972],[-89.54489,45.28915],[-89.54522,45.28876],[-89.54778,45.28829],[-89.54894,45.28771],[-89.54949,45.2866],[-89.55147,45.28511],[-89.5529,45.28466],[-89.55461,45.28472],[-89.55558,45.28532],[-89.55581,45.28562],[-89.55678,45.28532],[-89.55778,45.28445],[-89.55817,45.28374],[-89.55824,45.28173],[-89.55808,45.28096],[-89.55772,45.28029],[-89.55663,45.2792],[-89.55468,45.27773],[-89.55436,45.27716],[-89.5521,45.27638],[-89.55129,45.27556],[-89.55181,45.27414],[-89.55378,45.27389],[-89.55582,45.27392],[-89.5567,45.27369],[-89.55725,45.27273],[-89.55754,45.27134],[-89.55731,45.27105],[-89.55394,45.26913],[-89.55242,45.26702],[-89.55591,45.26652],[-89.55677,45.26561],[-89.55965,45.26359],[-89.55955,45.26061],[-89.56381,45.2556],[-89.56452,45.25511],[-89.56594,45.25475],[-89.56917,45.25498],[-89.57205,45.25468],[-89.57911,45.25414],[-89.58574,45.25446],[-89.59014,45.25407],[-89.59364,45.25318],[-89.59532,45.25318],[-89.59745,45.25373],[-89.59804,45.25341],[-89.59732,45.25211],[-89.59736,45.25117],[-89.5983,45.25019],[-89.59997,45.24926],[-89.60237,45.24755],[-89.60275,45.24716],[-89.60334,45.24704],[-89.60363,45.24803],[-89.60398,45.2488],[-89.60534,45.24889],[-89.6099,45.24796],[-89.61139,45.24796],[-89.61236,45.24844],[-89.61262,45.24892],[-89.61311,45.24956],[-89.6132,45.24972],[-89.61386,45.25042],[-89.61551,45.25127],[-89.617,45.25134],[-89.61813,45.25063],[-89.61854,45.24997],[-89.61912,45.24789],[-89.61893,45.2467],[-89.6188,45.24647],[-89.61828,45.24531],[-89.61851,45.24407],[-89.62055,45.24382],[-89.62375,45.24339],[-89.62608,45.24295],[-89.62802,45.24186],[-89.63057,45.24069],[-89.63213,45.23973],[-89.63539,45.23854],[-89.63607,45.23756],[-89.63723,45.23719],[-89.63846,45.23744],[-89.63956,45.23674],[-89.63953,45.2361],[-89.64102,45.23607],[-89.64322,45.23614],[-89.64448,45.23637],[-89.64784,45.23772],[-89.64878,45.23767],[-89.64982,45.23694],[-89.65007,45.23577],[-89.64985,45.2352],[-89.64952,45.23468],[-89.64926,45.23424],[-89.6491,45.23399],[-89.64862,45.23326],[-89.64752,45.23216],[-89.64732,45.23095],[-89.64832,45.22988],[-89.64936,45.22883],[-89.64936,45.22803],[-89.64868,45.22739],[-89.64726,45.22693],[-89.64574,45.22656],[-89.64612,45.22611],[-89.64803,45.22538],[-89.64822,45.22426],[-89.64764,45.22327],[-89.64732,45.22179],[-89.64722,45.22076],[-89.64793,45.21921],[-89.64903,45.21774],[-89.65029,45.21699],[-89.65168,45.21703],[-89.65229,45.21754],[-89.65271,45.21845],[-89.65339,45.21818],[-89.6542,45.2177],[-89.65342,45.21635],[-89.65239,45.21553],[-89.65171,45.21463],[-89.65177,45.21383],[-89.65342,45.21294],[-89.65358,45.21205],[-89.65319,45.21146],[-89.65151,45.21034],[-89.64893,45.20965],[-89.64699,45.20988],[-89.64369,45.20984],[-89.64314,45.21009],[-89.64249,45.21073],[-89.64175,45.21055],[-89.64159,45.21041],[-89.64101,45.20995],[-89.6411,45.20908],[-89.64288,45.20755],[-89.64275,45.20696],[-89.64304,45.20563],[-89.64395,45.20527],[-89.64511,45.20609],[-89.64618,45.20671],[-89.64744,45.20643],[-89.64905,45.20549],[-89.65177,45.20492],[-89.65316,45.20497],[-89.65726,45.20572],[-89.6603,45.20517],[-89.66098,45.20462],[-89.66108,45.20382],[-89.66049,45.20284],[-89.65849,45.20069],[-89.658,45.19985],[-89.65858,45.19864],[-89.65962,45.19793],[-89.66217,45.19815],[-89.66424,45.19806],[-89.66515,45.19882],[-89.66728,45.2003],[-89.66864,45.20185],[-89.66906,45.20281],[-89.66987,45.20375],[-89.671,45.20391],[-89.67216,45.20341],[-89.67342,45.20206],[-89.6752,45.20071],[-89.67513,45.20013],[-89.67442,45.19915],[-89.67097,45.19709],[-89.67142,45.19441],[-89.67439,45.19333],[-89.67729,45.19365],[-89.67877,45.19358],[-89.68395,45.19351],[-89.68692,45.19156],[-89.68873,45.19124],[-89.69102,45.18991],[-89.69228,45.18895],[-89.69257,45.18866],[-89.69361,45.18788],[-89.69545,45.18685],[-89.69719,45.18621],[-89.69861,45.18618],[-89.701,45.18648],[-89.70197,45.18591],[-89.70213,45.18522],[-89.70197,45.18467],[-89.70178,45.1844],[-89.70064,45.18349],[-89.70055,45.18323],[-89.70038,45.1828],[-89.70041,45.18141],[-89.70125,45.18051],[-89.70338,45.17884],[-89.704,45.17804],[-89.70383,45.17759],[-89.70319,45.17747],[-89.70096,45.17859],[-89.69918,45.17894],[-89.69611,45.17816],[-89.69366,45.17858],[-89.69195,45.17856],[-89.69117,45.17833],[-89.69087,45.17802],[-89.69034,45.17753]]}},{"type":"Feature","properties":{"gauge":"05396000","river":"big-rib","stem":false},"geometry":{"type":"LineString","coordinates":[[-89.99447,45.08992],[-89.99057,45.0891],[-89.98818,45.08915],[-89.98705,45.08812],[-89.98647,45.08743],[-89.9856,45.08634],[-89.9854,45.08574],[-89.98521,45.08515],[-89.98346,45.08392],[-89.98211,45.0833],[-89.97995,45.08337],[-89.97646,45.08269],[-89.97543,45.08274],[-89.97366,45.08343],[-89.9732,45.08247],[-89.97378,45.08052],[-89.97387,45.07968],[-89.97374,45.07822],[-89.97306,45.07696],[-89.97287,45.07591],[-89.97303,45.07495],[-89.97216,45.07449],[-89.97006,45.07257],[-89.96909,45.07141],[-89.96673,45.07027],[-89.96502,45.06986],[-89.96441,45.07007],[-89.96405,45.0695],[-89.96367,45.06824],[-89.9636,45.06803],[-89.96311,45.06673],[-89.96289,45.06529],[-89.96234,45.06406],[-89.96211,45.06369],[-89.96188,45.06335],[-89.96172,45.06118],[-89.96139,45.06006],[-89.96123,45.05935],[-89.96046,45.05851],[-89.9602,45.05753],[-89.95913,45.05647],[-89.95746,45.05575],[-89.9571,45.05497],[-89.95678,45.05408],[-89.95687,45.0536],[-89.95719,45.05028],[-89.95596,45.04873],[-89.95464,45.04757],[-89.95441,45.04693],[-89.95422,45.04638],[-89.95238,45.04556],[-89.95154,45.04487],[-89.95176,45.04307],[-89.95218,45.04163],[-89.95321,45.04071],[-89.95347,45.03831],[-89.95452,45.03491],[-89.95446,45.03379],[-89.95375,45.03288],[-89.95217,45.03196],[-89.95168,45.03116],[-89.95152,45.03084],[-89.95013,45.02982],[-89.94791,45.02666],[-89.94604,45.02502],[-89.94607,45.02436],[-89.94832,45.02294],[-89.95016,45.02191],[-89.95064,45.02159],[-89.95154,45.0201],[-89.95167,45.01972],[-89.95109,45.01848],[-89.94645,45.01771],[-89.94293,45.01654],[-89.94142,45.01559],[-89.93987,45.01401],[-89.93861,45.01262],[-89.93768,45.01129],[-89.93703,45.01052],[-89.93661,45.00992],[-89.93638,45.00951],[-89.93532,45.0064],[-89.93506,45.00595],[-89.93451,45.00476],[-89.93409,45.00428],[-89.93367,45.00369],[-89.93251,45.00268],[-89.93016,45.00129],[-89.92674,45.00076],[-89.92404,45.00061],[-89.92268,45.00022],[-89.92208,44.99991],[-89.92123,44.99922],[-89.92104,44.99734],[-89.9212,44.99693],[-89.92142,44.99625],[-89.9221,44.99522],[-89.92232,44.99357],[-89.92187,44.99314],[-89.92065,44.99289],[-89.91981,44.99213],[-89.91932,44.99129],[-89.91935,44.99015],[-89.91961,44.98942],[-89.91971,44.9885],[-89.92003,44.98793],[-89.91983,44.9835],[-89.91941,44.98263],[-89.91912,44.98151],[-89.91815,44.98066],[-89.91796,44.97902],[-89.91786,44.97879],[-89.91767,44.97847],[-89.91741,44.97811],[-89.91715,44.9776],[-89.9168,44.97641],[-89.91648,44.97561],[-89.91564,44.9739],[-89.91548,44.97354],[-89.91448,44.97242],[-89.91435,44.97217],[-89.91396,44.97155],[-89.91309,44.97143],[-89.91132,44.97192],[-89.90907,44.9732],[-89.90775,44.97347],[-89.90694,44.97283],[-89.90537,44.97235],[-89.90308,44.9711],[-89.90279,44.96968],[-89.90186,44.96918],[-89.90076,44.96927],[-89.8987,44.96886],[-89.8978,44.96893],[-89.89706,44.96865],[-89.89452,44.96751],[-89.89439,44.96678],[-89.89555,44.96655],[-89.89886,44.9655],[-89.90011,44.96479],[-89.90063,44.96342],[-89.90043,44.96152],[-89.90059,44.95972],[-89.90037,44.9594],[-89.89873,44.95899],[-89.89712,44.95917],[-89.89641,44.95892],[-89.89474,44.95764],[-89.89248,44.95716],[-89.89142,44.95668],[-89.89091,44.95597],[-89.89042,44.95435],[-89.89026,44.95357],[-89.88991,44.95298],[-89.8891,44.95261],[-89.88707,44.9525],[-89.88582,44.95207],[-89.88382,44.95154],[-89.88083,44.95099],[-89.87774,44.95074],[-89.87597,44.95006],[-89.87513,44.94983],[-89.87382,44.94992],[-89.87308,44.95072],[-89.87356,44.95108],[-89.87514,44.95195],[-89.87536,44.95264],[-89.87382,44.95344],[-89.87208,44.95362],[-89.87028,44.95259],[-89.86844,44.95248],[-89.86474,44.9523],[-89.86326,44.95241],[-89.86226,44.95232],[-89.85982,44.95024],[-89.86001,44.94939],[-89.85995,44.94834],[-89.86008,44.94704],[-89.85998,44.94334],[-89.85953,44.94236],[-89.85921,44.94169],[-89.85889,44.94117],[-89.85921,44.94041],[-89.85914,44.93929],[-89.85908,44.93911],[-89.85837,44.93792],[-89.85818,44.93747],[-89.85782,44.93701],[-89.8567,44.9366],[-89.85638,44.93584],[-89.8558,44.93509],[-89.85554,44.9344],[-89.85487,44.93408],[-89.85313,44.93472],[-89.85187,44.93463],[-89.85113,44.93465],[-89.84952,44.93479],[-89.84846,44.93433],[-89.84821,44.93367],[-89.84776,44.93317],[-89.84653,44.93299],[-89.84357,44.93331],[-89.84316,44.93372],[-89.84193,44.9339],[-89.84065,44.9347],[-89.83904,44.93554],[-89.83823,44.93579],[-89.83614,44.93621],[-89.83543,44.93666],[-89.83469,44.93723],[-89.83418,44.93808],[-89.83344,44.93858],[-89.83247,44.9386],[-89.82948,44.93808],[-89.82861,44.93753],[-89.82861,44.93705],[-89.82906,44.93652],[-89.83141,44.93639],[-89.8326,44.93609],[-89.8328,44.93545],[-89.83225,44.9349],[-89.83051,44.93449],[-89.82842,44.93396],[-89.82479,44.93403],[-89.82289,44.93449],[-89.8216,44.93515],[-89.82073,44.93599],[-89.81919,44.93597],[-89.81668,44.9351],[-89.8151,44.9354],[-89.81478,44.93606],[-89.81455,44.93663],[-89.81446,44.93764],[-89.81314,44.93887],[-89.81223,44.93901],[-89.81088,44.93834],[-89.80747,44.93779],[-89.80583,44.93802],[-89.8048,44.93843],[-89.80297,44.93829],[-89.80162,44.93772],[-89.80065,44.93761],[-89.8004,44.9372],[-89.80037,44.93681],[-89.80082,44.93615],[-89.80146,44.9356],[-89.80127,44.93471],[-89.80001,44.93425],[-89.79795,44.93457],[-89.7958,44.93527],[-89.79348,44.93564],[-89.79207,44.93625],[-89.79026,44.93618],[-89.7894,44.93598],[-89.78878,44.93671],[-89.78769,44.93744],[-89.78682,44.93844],[-89.7845,44.93858],[-89.78183,44.94036],[-89.78051,44.94132],[-89.77948,44.94178],[-89.77845,44.94166],[-89.77768,44.94141],[-89.77603,44.94225],[-89.77397,44.9425],[-89.77253,44.94227],[-89.77156,44.94156],[-89.76899,44.94156],[-89.76574,44.94112],[-89.76391,44.94099],[-89.76201,44.94039],[-89.75779,44.94112],[-89.75573,44.94173],[-89.75415,44.94196],[-89.75164,44.94223],[-89.75055,44.94342],[-89.74985,44.94455],[-89.74892,44.94521],[-89.74602,44.94579],[-89.74413,44.94556],[-89.74223,44.94543],[-89.74142,44.94481],[-89.741,44.94385],[-89.7409,44.94371],[-89.74026,44.94307],[-89.73955,44.94264],[-89.73874,44.94246],[-89.73762,44.94294],[-89.73727,44.94468],[-89.73685,44.94516],[-89.73557,44.94516],[-89.73415,44.94434],[-89.7337,44.94374],[-89.73305,44.94365],[-89.73238,44.94406],[-89.73196,44.9447],[-89.73067,44.94455],[-89.72967,44.94359],[-89.72935,44.94274],[-89.72867,44.94235],[-89.72768,44.94252],[-89.72636,44.94259],[-89.72539,44.9419],[-89.72439,44.94142],[-89.72291,44.94149],[-89.7224,44.94188],[-89.72224,44.94254],[-89.72169,44.94314],[-89.72079,44.94341],[-89.72008,44.94371],[-89.72041,44.94421],[-89.72137,44.94421],[-89.72218,44.9443],[-89.72256,44.94503],[-89.72244,44.94529],[-89.72118,44.94574],[-89.71903,44.94561],[-89.71832,44.94604],[-89.71826,44.94666],[-89.71868,44.94709],[-89.71903,44.94771],[-89.71871,44.94831],[-89.71697,44.94865],[-89.71552,44.9484],[-89.71469,44.9489],[-89.71398,44.94893],[-89.71346,44.94838],[-89.71256,44.94795],[-89.71198,44.94731],[-89.71089,44.94717],[-89.70973,44.94653],[-89.70937,44.94557],[-89.71037,44.94461],[-89.71034,44.94438],[-89.70979,44.94393],[-89.70889,44.9434],[-89.70799,44.94356],[-89.70715,44.94438],[-89.7057,44.94445],[-89.70544,44.94402],[-89.70528,44.9434],[-89.70451,44.94315],[-89.70367,44.94354],[-89.70245,44.94423],[-89.70133,44.94409],[-89.70126,44.94453],[-89.70204,44.94501],[-89.70181,44.94535],[-89.69933,44.94572],[-89.6983,44.94524],[-89.69808,44.94448],[-89.6983,44.9438],[-89.69785,44.9432],[-89.69656,44.94307],[-89.69544,44.94371],[-89.69528,44.94464],[-89.69566,44.94551],[-89.69541,44.94675],[-89.69454,44.94716],[-89.69338,44.94673],[-89.69322,44.94549],[-89.69341,44.94451],[-89.69299,44.94334],[-89.69228,44.94323],[-89.6919,44.94332],[-89.69014,44.94437],[-89.68862,44.94551],[-89.68752,44.94571],[-89.68642,44.94533],[-89.68524,44.94488],[-89.68233,44.94529],[-89.68187,44.94575],[-89.67977,44.94564],[-89.6791,44.94669],[-89.67823,44.94729],[-89.67813,44.94756],[-89.67562,44.94829],[-89.67453,44.9485],[-89.67288,44.94815],[-89.67192,44.94781],[-89.67208,44.94713],[-89.67205,44.94576],[-89.67186,44.94532],[-89.6705,44.9448],[-89.66895,44.94513],[-89.66608,44.94513],[-89.6637,44.9461],[-89.6612,44.94436],[-89.66056,44.94298],[-89.65974,44.94159],[-89.65948,44.94036],[-89.65745,44.93959],[-89.6545,44.94053],[-89.64834,44.93713],[-89.64576,44.93215],[-89.64509,44.93117]]}},{"type":"Feature","properties":{"gauge":"05396500","river":"little-rib","stem":false},"geometry":{"type":"LineString","coordinates":[[-89.74902,44.99997],[-89.74956,44.99871],[-89.75014,44.99804],[-89.75067,44.99728],[-89.75014,44.99713],[-89.74501,44.99663],[-89.74424,44.99627],[-89.7434,44.99579],[-89.74221,44.99586],[-89.74153,44.99545],[-89.74086,44.99531],[-89.74079,44.99625],[-89.74028,44.99685],[-89.73957,44.99691],[-89.7386,44.99662],[-89.73812,44.99616],[-89.73821,44.99516],[-89.73783,44.99502],[-89.73693,44.99516],[-89.73676,44.99495],[-89.7368,44.99461],[-89.73773,44.99452],[-89.73873,44.99415],[-89.73918,44.99314],[-89.73879,44.99262],[-89.73824,44.99166],[-89.73833,44.99125],[-89.73817,44.99056],[-89.73721,44.99018],[-89.73633,44.98972],[-89.73605,44.99027],[-89.7354,44.99052],[-89.73514,44.99022],[-89.73527,44.98942],[-89.73459,44.98904],[-89.73343,44.98874],[-89.73363,44.98821],[-89.73359,44.98744],[-89.73275,44.98614],[-89.73124,44.98586],[-89.73117,44.98536],[-89.73085,44.98527],[-89.73034,44.98545],[-89.7303,44.98532],[-89.72934,44.9844],[-89.7295,44.98406],[-89.7294,44.98358],[-89.72985,44.98244],[-89.7302,44.98166],[-89.72997,44.9812],[-89.72898,44.98125],[-89.72843,44.98091],[-89.72836,44.97999],[-89.72768,44.97956],[-89.72688,44.97929],[-89.72617,44.97844],[-89.7254,44.97814],[-89.72495,44.97876],[-89.7244,44.97892],[-89.72424,44.97856],[-89.72443,44.97799],[-89.72475,44.97748],[-89.72366,44.9773],[-89.72282,44.97758],[-89.72269,44.97719],[-89.72317,44.97675],[-89.72214,44.97625],[-89.72246,44.9755],[-89.7223,44.97509],[-89.72156,44.97538],[-89.72108,44.97529],[-89.72098,44.97463],[-89.72069,44.97438],[-89.72049,44.97401],[-89.71972,44.97347],[-89.71988,44.97301],[-89.71936,44.97257],[-89.71878,44.97212],[-89.71766,44.9721],[-89.71727,44.97212],[-89.71785,44.97299],[-89.71772,44.97356],[-89.71689,44.97328],[-89.71669,44.97294],[-89.71579,44.97201],[-89.71592,44.97146],[-89.71492,44.9715],[-89.7145,44.9718],[-89.71389,44.97187],[-89.71228,44.97126],[-89.71138,44.97144],[-89.71016,44.97128],[-89.70925,44.97114],[-89.7088,44.97158],[-89.70803,44.97167],[-89.70732,44.97071],[-89.70639,44.97053],[-89.70613,44.97005],[-89.70529,44.96948],[-89.70519,44.969],[-89.70397,44.96916],[-89.70365,44.96845],[-89.70349,44.96783],[-89.70194,44.96761],[-89.70139,44.96676],[-89.70194,44.96614],[-89.7012,44.9656],[-89.70132,44.96482],[-89.70033,44.96411],[-89.69942,44.96398],[-89.69978,44.9635],[-89.69975,44.96324],[-89.69878,44.96302],[-89.6983,44.96263],[-89.69794,44.96304],[-89.69752,44.96318],[-89.69694,44.9627],[-89.69743,44.96213],[-89.69813,44.96075],[-89.69865,44.96018],[-89.69919,44.95924],[-89.70003,44.95762],[-89.69983,44.95723],[-89.69945,44.95673],[-89.69883,44.95653],[-89.69829,44.95673],[-89.69784,44.95655],[-89.69767,44.95589],[-89.69722,44.9557],[-89.69632,44.95625],[-89.696,44.95575],[-89.69532,44.95456],[-89.6949,44.95312],[-89.69419,44.95274],[-89.694,44.95237],[-89.6932,44.95255],[-89.69271,44.95242],[-89.69126,44.95203],[-89.69056,44.95146],[-89.68982,44.95107],[-89.69075,44.95038],[-89.69104,44.94997],[-89.69062,44.94979],[-89.68994,44.94988],[-89.68923,44.94933],[-89.68926,44.94847],[-89.68881,44.94835],[-89.6884,44.94872],[-89.68788,44.94872],[-89.68756,44.94828],[-89.68714,44.94851],[-89.68659,44.9486],[-89.68637,44.94785],[-89.68469,44.94742],[-89.6837,44.94806],[-89.68286,44.94826],[-89.68112,44.94762],[-89.67993,44.94737],[-89.6791,44.94712],[-89.67869,44.94694]]}},{"type":"Feature","properties":{"gauge":"05397500","river":"eau-claire","stem":false},"geometry":{"type":"LineString","coordinates":[[-89.44376,44.9165],[-89.44469,44.91572],[-89.4453,44.91535],[-89.44839,44.91409],[-89.4509,44.91256],[-89.45244,44.91128],[-89.45501,44.90956],[-89.45591,44.90865],[-89.45636,44.90776],[-89.45677,44.90707],[-89.45783,44.90638],[-89.45957,44.90572],[-89.46026,44.90566],[-89.46783,44.90238],[-89.46923,44.90196],[-89.4696,44.90169],[-89.47072,44.90146],[-89.47127,44.90192],[-89.47207,44.90198],[-89.473,44.90162],[-89.4732,44.90118],[-89.4722,44.90098],[-89.47194,44.90059],[-89.47181,44.89977],[-89.47187,44.89936],[-89.47332,44.89897],[-89.47535,44.8989],[-89.47724,44.89937],[-89.47814,44.89894],[-89.47843,44.89802],[-89.47808,44.89743],[-89.47824,44.89707],[-89.47991,44.89695],[-89.48171,44.89715],[-89.4838,44.89809],[-89.48509,44.89857],[-89.48541,44.89941],[-89.4857,44.90021],[-89.48741,44.90096],[-89.4877,44.90135],[-89.48735,44.90247],[-89.48664,44.90291],[-89.48565,44.90337],[-89.48558,44.90389],[-89.48697,44.90437],[-89.48816,44.90448],[-89.48996,44.90402],[-89.49118,44.90391],[-89.49159,44.9034],[-89.49246,44.90155],[-89.49307,44.89959],[-89.49355,44.89872],[-89.49425,44.89828],[-89.49615,44.89855],[-89.49914,44.89905],[-89.50033,44.89959],[-89.50136,44.90073],[-89.50145,44.90176],[-89.50174,44.9022],[-89.50335,44.90202],[-89.50624,44.90181],[-89.50717,44.90216],[-89.50746,44.90275],[-89.50949,44.90392],[-89.51042,44.90435],[-89.51238,44.9049],[-89.51369,44.9058],[-89.51463,44.90594],[-89.51572,44.9063],[-89.51649,44.90699],[-89.51749,44.90763],[-89.51906,44.90866],[-89.52169,44.91079],[-89.52414,44.91141],[-89.52636,44.9115],[-89.52816,44.91077],[-89.52983,44.90951],[-89.53012,44.90924],[-89.53051,44.90833],[-89.53173,44.9073],[-89.53254,44.90632],[-89.53296,44.90572],[-89.5345,44.90547],[-89.53547,44.90586],[-89.53598,44.90643],[-89.5355,44.9073],[-89.53572,44.90785],[-89.53704,44.90833],[-89.53929,44.90856],[-89.54022,44.90884],[-89.54041,44.90966],[-89.54044,44.91005],[-89.54025,44.91075],[-89.54064,44.9119],[-89.54124,44.91332],[-89.54185,44.91418],[-89.54336,44.91537],[-89.54356,44.91606],[-89.54397,44.91643],[-89.54642,44.91666],[-89.54838,44.91762],[-89.55057,44.91819],[-89.55208,44.91837],[-89.55446,44.91789],[-89.55813,44.91803],[-89.56121,44.91845],[-89.56211,44.91858],[-89.56247,44.91918],[-89.56115,44.91963],[-89.55941,44.92032],[-89.55922,44.92103],[-89.5595,44.92176],[-89.56047,44.92213],[-89.56163,44.92181],[-89.56205,44.92153],[-89.56285,44.92178],[-89.56323,44.92263],[-89.56307,44.92343],[-89.56339,44.92402],[-89.56323,44.92482],[-89.56246,44.92507],[-89.56217,44.92583],[-89.56246,44.92642],[-89.56214,44.92713],[-89.56214,44.9275],[-89.5628,44.92805],[-89.56362,44.92786],[-89.56481,44.92807],[-89.56571,44.92848],[-89.56677,44.92809],[-89.56699,44.92736],[-89.56648,44.92686],[-89.565,44.92706],[-89.56465,44.92672],[-89.56523,44.92608],[-89.56667,44.92576],[-89.56735,44.92608],[-89.56802,44.92654],[-89.56925,44.92624],[-89.5705,44.92599],[-89.57086,44.92647],[-89.57044,44.92695],[-89.5704,44.92766],[-89.57121,44.92803],[-89.57407,44.92778],[-89.57591,44.92732],[-89.57684,44.92764],[-89.57735,44.92741],[-89.57771,44.92684],[-89.57752,44.92599],[-89.57668,44.92554],[-89.57604,44.92579],[-89.57565,44.92643],[-89.57491,44.92629],[-89.57494,44.9259],[-89.57562,44.92476],[-89.57671,44.92455],[-89.57777,44.92417],[-89.57916,44.9243],[-89.58006,44.92488],[-89.58015,44.92508],[-89.58064,44.92547],[-89.58199,44.9254],[-89.58286,44.92524],[-89.5843,44.92497],[-89.5863,44.92458],[-89.58717,44.92412],[-89.58713,44.92362],[-89.58646,44.92287],[-89.5872,44.92234],[-89.588,44.92252],[-89.58833,44.92291],[-89.58816,44.92399],[-89.58868,44.92524],[-89.58826,44.92677],[-89.58974,44.92732],[-89.59086,44.92721],[-89.59125,44.92671],[-89.59151,44.92632],[-89.5918,44.92631],[-89.593,44.92734],[-89.59345,44.92858],[-89.5951,44.92933],[-89.59626,44.92912],[-89.59812,44.92961],[-89.60136,44.92963],[-89.60333,44.92905],[-89.60577,44.92741],[-89.60794,44.92468],[-89.60892,44.92243],[-89.60788,44.9213],[-89.60976,44.9176],[-89.61466,44.91419],[-89.6194,44.91644],[-89.62374,44.91692],[-89.62563,44.91714],[-89.63114,44.91727]]}},{"type":"Feature","properties":{"gauge":"05399500","river":"big-eau-pleine","stem":false},"geometry":{"type":"LineString","coordinates":[[-90.17203,44.88193],[-90.17139,44.8812],[-90.17151,44.87967],[-90.17167,44.87898],[-90.17132,44.87836],[-90.1682,44.87709],[-90.16666,44.87581],[-90.16556,44.8743],[-90.16566,44.8735],[-90.1665,44.87295],[-90.16717,44.8719],[-90.16762,44.86971],[-90.16717,44.86904],[-90.16675,44.86875],[-90.16691,44.86806],[-90.16881,44.86769],[-90.17118,44.86822],[-90.17469,44.86847],[-90.17533,44.86787],[-90.17565,44.86566],[-90.17517,44.86438],[-90.17391,44.86271],[-90.17359,44.86216],[-90.17327,44.86168],[-90.17304,44.86061],[-90.17266,44.85979],[-90.17124,44.85921],[-90.16629,44.85874],[-90.16449,44.8583],[-90.16398,44.8578],[-90.16388,44.85721],[-90.16404,44.85597],[-90.16468,44.85545],[-90.16594,44.85547],[-90.167,44.85487],[-90.16822,44.85316],[-90.16847,44.85206],[-90.16809,44.8511],[-90.16735,44.85021],[-90.16687,44.85014],[-90.16626,44.85065],[-90.16555,44.8509],[-90.16314,44.84967],[-90.16067,44.84916],[-90.15867,44.84926],[-90.15585,44.8493],[-90.15415,44.85008],[-90.15251,44.85097],[-90.15064,44.85131],[-90.14836,44.85088],[-90.1457,44.85022],[-90.14358,44.85063],[-90.14165,44.85211],[-90.14139,44.85305],[-90.13905,44.85351],[-90.13673,44.8533],[-90.13384,44.85273],[-90.13272,44.85287],[-90.1314,44.85305],[-90.12973,44.85246],[-90.12726,44.85111],[-90.12629,44.85095],[-90.12389,44.85093],[-90.12022,44.8515],[-90.11846,44.85148],[-90.1164,44.8507],[-90.11476,44.8501],[-90.11328,44.84923],[-90.11309,44.84876],[-90.1129,44.84839],[-90.11251,44.84782],[-90.10969,44.84583],[-90.10946,44.84537],[-90.10917,44.84446],[-90.10895,44.84366],[-90.10879,44.8392],[-90.1085,44.83817],[-90.10741,44.8379],[-90.10478,44.8381],[-90.10282,44.83808],[-90.10157,44.83753],[-90.10051,44.83641],[-90.10031,44.83575],[-90.10019,44.83559],[-90.09987,44.83495],[-90.09977,44.83479],[-90.09964,44.83456],[-90.09746,44.83344],[-90.09441,44.83234],[-90.0938,44.83189],[-90.09341,44.83125],[-90.09322,44.831],[-90.09312,44.83084],[-90.09303,44.83061],[-90.09251,44.82965],[-90.09213,44.82892],[-90.09187,44.82777],[-90.09159,44.82656],[-90.09114,44.82423],[-90.09088,44.82364],[-90.09021,44.82233],[-90.08809,44.82121],[-90.08481,44.82055],[-90.08257,44.82041],[-90.08022,44.82126],[-90.07746,44.8218],[-90.07512,44.82285],[-90.07483,44.82374],[-90.07405,44.82502],[-90.07322,44.82507],[-90.07245,44.82484],[-90.072,44.82431],[-90.07139,44.82377],[-90.07046,44.82326],[-90.0704,44.8231],[-90.07014,44.82242],[-90.06937,44.82203],[-90.06799,44.82223],[-90.06574,44.82237],[-90.06436,44.82214],[-90.06022,44.82113],[-90.0591,44.82024],[-90.05865,44.81953],[-90.05849,44.81887],[-90.05836,44.81702],[-90.05833,44.81615],[-90.05859,44.81236],[-90.05853,44.81055],[-90.05783,44.80861],[-90.05767,44.8074],[-90.05751,44.80598],[-90.05719,44.80461],[-90.05661,44.80413],[-90.04907,44.80431],[-90.04843,44.80488],[-90.04775,44.80597],[-90.04798,44.80716],[-90.04801,44.80794],[-90.04759,44.80853],[-90.0465,44.80922],[-90.04585,44.81011],[-90.04415,44.81175],[-90.04376,44.81209],[-90.03962,44.81481],[-90.03766,44.81559],[-90.03625,44.81563],[-90.03089,44.81483],[-90.02781,44.81295],[-90.02655,44.81233],[-90.02296,44.81002],[-90.02078,44.80668],[-90.0198,44.80636],[-90.01964,44.80616],[-90.01848,44.80515],[-90.01778,44.80465],[-90.01572,44.804],[-90.01097,44.80432],[-90.00413,44.80523],[-90.00336,44.8055],[-90.00243,44.8058],[-90.00153,44.80541],[-90.00013,44.80385],[-89.99981,44.80269],[-89.99953,44.80048],[-89.9971,44.79901],[-89.99482,44.79711],[-89.99374,44.79616],[-89.99008,44.79451],[-89.98805,44.79388],[-89.98413,44.79302],[-89.97822,44.78884],[-89.97744,44.78692],[-89.97805,44.78438],[-89.97886,44.78172],[-89.98491,44.7778],[-89.98475,44.77537],[-89.98053,44.77369],[-89.97633,44.77377],[-89.9742,44.77422],[-89.97155,44.77626],[-89.96717,44.77836],[-89.96442,44.77931],[-89.96042,44.7794],[-89.95601,44.77556],[-89.9562,44.77125],[-89.94994,44.76894],[-89.9472,44.76773],[-89.93529,44.76692],[-89.9323,44.76422],[-89.93129,44.76269],[-89.93098,44.762],[-89.92697,44.75791],[-89.92275,44.75623],[-89.91798,44.75426],[-89.91331,44.75337],[-89.90888,44.75182],[-89.90345,44.74874],[-89.89839,44.74796],[-89.89517,44.74782],[-89.89328,44.74976],[-89.88893,44.75158],[-89.88483,44.75275],[-89.87837,44.75272],[-89.8725,44.74827],[-89.86915,44.74744],[-89.85706,44.73824],[-89.85076,44.73431],[-89.84412,44.73211],[-89.83508,44.73318],[-89.82784,44.73757],[-89.81973,44.73882],[-89.816,44.74013],[-89.80989,44.73836],[-89.79932,44.73126],[-89.7792,44.73086],[-89.76291,44.73024],[-89.76002,44.73064],[-89.75832,44.73056],[-89.75685,44.72995],[-89.75592,44.72775],[-89.7546,44.72553],[-89.74877,44.72688],[-89.74216,44.72846],[-89.73801,44.73015],[-89.73566,44.73085],[-89.73003,44.73207],[-89.72656,44.73259],[-89.72254,44.73091],[-89.71848,44.72748]]}},{"type":"Feature","properties":{"gauge":"05400625","river":"little-plover","stem":false},"geometry":{"type":"LineString","coordinates":[[-89.48,44.48205],[-89.47993,44.47523],[-89.47976,44.47487],[-89.48238,44.47153],[-89.4826,44.46984],[-89.48355,44.46901],[-89.48582,44.46855],[-89.48681,44.46803],[-89.48786,44.46768],[-89.48898,44.46803],[-89.49003,44.46846],[-89.49105,44.46802],[-89.49182,44.46793],[-89.4923,44.46823],[-89.49258,44.46864],[-89.49313,44.46878],[-89.49421,44.46855],[-89.49543,44.46907],[-89.49693,44.46907],[-89.4997,44.46868],[-89.50056,44.46899],[-89.50231,44.46947],[-89.50276,44.46997],[-89.50467,44.47027],[-89.50512,44.47068],[-89.50563,44.47068],[-89.50684,44.47041],[-89.50885,44.47059],[-89.50927,44.47037],[-89.51019,44.47048],[-89.51096,44.47009],[-89.51163,44.47002],[-89.51396,44.47089],[-89.51674,44.47115],[-89.51756,44.47154],[-89.51903,44.47184],[-89.51942,44.47195],[-89.52092,44.4722],[-89.52267,44.47298],[-89.52411,44.47273],[-89.5257,44.47294],[-89.52765,44.47331],[-89.53039,44.47329],[-89.53266,44.47272],[-89.53735,44.47292],[-89.53808,44.4732],[-89.545,44.47219],[-89.54616,44.47198],[-89.5475,44.47202],[-89.55031,44.47188],[-89.55232,44.472],[-89.55328,44.47177],[-89.55347,44.47088],[-89.55325,44.46967],[-89.5534,44.46946],[-89.55407,44.46845],[-89.55398,44.46547],[-89.5553,44.46351],[-89.55944,44.46182],[-89.56503,44.46277],[-89.56666,44.46555],[-89.56878,44.46713],[-89.57245,44.46738]]}},{"type":"Feature","properties":{"gauge":"04074950","river":"wolf","stem":false},"geometry":{"type":"LineString","coordinates":[[-88.83177,45.27204],[-88.8273,45.27147],[-88.82423,45.27004],[-88.82092,45.26924],[-88.81733,45.26766],[-88.81438,45.26674],[-88.81318,45.2663],[-88.81022,45.26551],[-88.80782,45.2645],[-88.80857,45.26252],[-88.80865,45.26012],[-88.80747,45.25779],[-88.80684,45.25535],[-88.80538,45.25389],[-88.80591,45.25227],[-88.80577,45.25025],[-88.80622,45.24775],[-88.80525,45.24681],[-88.8054,45.24379],[-88.8052,45.24292],[-88.8048,45.24211],[-88.80321,45.23913],[-88.80258,45.23834],[-88.79765,45.23788],[-88.79652,45.23755],[-88.79374,45.23736],[-88.79013,45.23603],[-88.78904,45.23445],[-88.78992,45.23299],[-88.79482,45.22896],[-88.79592,45.22712],[-88.80051,45.2227],[-88.80388,45.22124],[-88.8031,45.22018],[-88.80209,45.21963],[-88.79704,45.22163],[-88.79272,45.2219],[-88.79055,45.21875],[-88.78957,45.21794],[-88.78758,45.21701],[-88.78664,45.21661],[-88.78408,45.21576],[-88.78203,45.21404],[-88.78122,45.21368],[-88.77949,45.21185],[-88.77548,45.20923],[-88.76997,45.21058],[-88.76796,45.21098],[-88.76322,45.21186],[-88.75952,45.21128],[-88.75781,45.20891],[-88.7612,45.20569],[-88.76332,45.20265],[-88.76254,45.2016],[-88.76245,45.20071],[-88.75999,45.19868],[-88.75853,45.19898],[-88.75697,45.19852],[-88.75608,45.19673],[-88.75528,45.1959],[-88.75308,45.19477],[-88.75084,45.19399],[-88.74999,45.19347],[-88.74742,45.19257],[-88.74345,45.19122],[-88.73827,45.1912],[-88.7359,45.19157],[-88.73338,45.19005],[-88.73222,45.18759],[-88.73307,45.18473],[-88.73409,45.18327],[-88.73448,45.18255],[-88.7352,45.18156],[-88.73566,45.18058],[-88.73538,45.17829],[-88.73558,45.17641],[-88.73647,45.17482],[-88.73643,45.17191],[-88.73546,45.17119],[-88.73387,45.17076],[-88.73048,45.16906],[-88.72928,45.16801],[-88.72916,45.16634],[-88.72724,45.16434],[-88.72338,45.16035],[-88.71594,45.15969],[-88.71444,45.15873],[-88.71447,45.15684],[-88.71459,45.15571],[-88.71514,45.15526],[-88.71693,45.15508],[-88.7184,45.15516],[-88.722,45.15333],[-88.72307,45.15203],[-88.72391,45.15053],[-88.72607,45.14875],[-88.72788,45.1486],[-88.72877,45.14818],[-88.73087,45.14673],[-88.73119,45.14606],[-88.73168,45.14477],[-88.73159,45.14236],[-88.72907,45.14084],[-88.72768,45.13887],[-88.72243,45.13783],[-88.71934,45.13829],[-88.71802,45.13734],[-88.7172,45.13502],[-88.71732,45.13389],[-88.71668,45.13158],[-88.7161,45.13029],[-88.71146,45.12865],[-88.70953,45.12829],[-88.70669,45.13142],[-88.70461,45.13244],[-88.70154,45.13278],[-88.69855,45.13237],[-88.69654,45.13276],[-88.69467,45.13518],[-88.69176,45.13402],[-88.68868,45.13271],[-88.6863,45.13321],[-88.68392,45.13298],[-88.68281,45.13252],[-88.67701,45.13157],[-88.67834,45.12925],[-88.67846,45.1281],[-88.67815,45.12772],[-88.67333,45.12935],[-88.67208,45.12928],[-88.67128,45.12886],[-88.6688,45.12822],[-88.66752,45.12815],[-88.66532,45.1274],[-88.66311,45.12639],[-88.66334,45.12426],[-88.66612,45.12176],[-88.66322,45.11883],[-88.66317,45.11769],[-88.66268,45.11728],[-88.65708,45.11622],[-88.65201,45.11519],[-88.64922,45.11453],[-88.64714,45.1127],[-88.64307,45.11204],[-88.64208,45.10959],[-88.63896,45.10551],[-88.63584,45.10142],[-88.6379,45.10053],[-88.63902,45.0968],[-88.63811,45.09599],[-88.63539,45.09408],[-88.6337,45.09159],[-88.63249,45.08963],[-88.62942,45.08832],[-88.63016,45.08647],[-88.6301,45.08557]]}},{"type":"Feature","properties":{"gauge":"04080798","river":"tomorrow","stem":false},"geometry":{"type":"LineString","coordinates":[[-89.37767,44.57025],[-89.37767,44.5692],[-89.37735,44.56854],[-89.3769,44.56815],[-89.37578,44.56792],[-89.3752,44.56733],[-89.37485,44.56699],[-89.37354,44.56717],[-89.37316,44.56701],[-89.37277,44.56612],[-89.37124,44.56662],[-89.37079,44.56641],[-89.3705,44.56575],[-89.3697,44.56568],[-89.36923,44.56539],[-89.36852,44.56516],[-89.36744,44.56497],[-89.36692,44.56484],[-89.36648,44.56491],[-89.36638,44.56454],[-89.36542,44.56431],[-89.36475,44.56427],[-89.36417,44.56401],[-89.36337,44.56411],[-89.36181,44.56406],[-89.35928,44.56365],[-89.35637,44.56374],[-89.35557,44.56342],[-89.35449,44.5631],[-89.3542,44.56216],[-89.35327,44.56154],[-89.35295,44.5609],[-89.35299,44.55976],[-89.35334,44.55933],[-89.35318,44.55866],[-89.35331,44.55777],[-89.35398,44.557],[-89.35427,44.55562],[-89.35398,44.55464],[-89.35449,44.55354],[-89.35481,44.5527],[-89.35542,44.55181],[-89.35491,44.55098],[-89.35446,44.55046],[-89.3542,44.54961],[-89.35404,44.54897],[-89.35468,44.54874],[-89.35491,44.54826],[-89.3536,44.54705],[-89.35261,44.54586],[-89.35197,44.5452],[-89.34967,44.54454],[-89.34746,44.54367],[-89.34663,44.54392],[-89.3458,44.54431],[-89.34529,44.54461],[-89.34426,44.54472],[-89.34385,44.5441],[-89.34356,44.54365],[-89.34251,44.54332],[-89.34212,44.54284],[-89.34056,44.54273],[-89.33979,44.54312],[-89.33931,44.54326],[-89.33912,44.5428],[-89.33861,44.54273],[-89.33842,44.54239],[-89.33762,44.54195],[-89.33634,44.54138],[-89.33621,44.54047],[-89.33557,44.53987],[-89.33542,44.53903],[-89.3351,44.5382],[-89.33449,44.53729],[-89.3343,44.53603],[-89.33455,44.53507],[-89.33516,44.53427],[-89.33545,44.53361],[-89.33558,44.53297],[-89.3352,44.53228],[-89.33555,44.53167],[-89.33596,44.53105],[-89.33609,44.53039],[-89.3374,44.52968],[-89.33775,44.52901],[-89.33843,44.52831],[-89.33961,44.52778],[-89.33932,44.5271],[-89.33955,44.52652],[-89.33849,44.52568],[-89.33878,44.52502],[-89.33875,44.52458],[-89.33789,44.52415],[-89.33709,44.52348],[-89.33706,44.52271],[-89.3375,44.52223],[-89.33808,44.52145],[-89.33798,44.52117],[-89.33722,44.52088],[-89.33728,44.52053],[-89.33715,44.51994],[-89.33635,44.51948],[-89.3362,44.51861],[-89.33562,44.5174],[-89.33517,44.5166],[-89.33572,44.51587],[-89.33521,44.51509],[-89.33345,44.5137],[-89.3323,44.51322],[-89.33074,44.5131],[-89.32987,44.51276],[-89.32812,44.51157],[-89.32659,44.5105],[-89.32403,44.50839],[-89.32375,44.50734],[-89.32346,44.50666],[-89.32407,44.5059],[-89.32333,44.5054],[-89.32231,44.50535],[-89.32196,44.50343],[-89.32129,44.50311],[-89.32088,44.50272],[-89.32096,44.50195],[-89.31949,44.50002],[-89.31936,44.49951],[-89.31712,44.4989],[-89.31579,44.49807],[-89.31492,44.49614],[-89.31437,44.4961],[-89.31179,44.49423],[-89.31139,44.4941],[-89.30951,44.49263],[-89.30877,44.49169],[-89.30807,44.49082],[-89.3073,44.49044],[-89.30702,44.48918],[-89.30577,44.48829],[-89.30552,44.48737],[-89.30424,44.48627],[-89.30233,44.48495],[-89.30204,44.4847],[-89.30073,44.48451],[-89.30045,44.48431],[-89.29949,44.48337],[-89.29917,44.48261],[-89.30016,44.48239],[-89.30038,44.48202],[-89.29975,44.48097],[-89.29991,44.48019],[-89.29969,44.47969],[-89.29822,44.47939],[-89.29726,44.47898],[-89.297,44.47843],[-89.29678,44.47804],[-89.29595,44.47742],[-89.29567,44.47674],[-89.29656,44.47621],[-89.29567,44.47589],[-89.29513,44.47521],[-89.29481,44.47466],[-89.29388,44.47418],[-89.29369,44.47338],[-89.29347,44.47287],[-89.29328,44.47242],[-89.29222,44.4715],[-89.29146,44.47093],[-89.29031,44.47129],[-89.28922,44.47143],[-89.2882,44.47088],[-89.28808,44.47042],[-89.28862,44.47026],[-89.28888,44.46983],[-89.28859,44.46926],[-89.28747,44.46768],[-89.28582,44.46615],[-89.28556,44.46544],[-89.28547,44.4653],[-89.28518,44.46478],[-89.28362,44.4642],[-89.28327,44.46368],[-89.28373,44.46106],[-89.28233,44.45734],[-89.28219,44.45343],[-89.283,44.45117],[-89.28319,44.45035],[-89.28354,44.4491],[-89.28405,44.44852],[-89.28377,44.44795],[-89.28457,44.44747],[-89.28498,44.44688],[-89.28514,44.44617],[-89.28527,44.44505],[-89.28575,44.44457],[-89.28588,44.44409],[-89.28562,44.44363],[-89.28585,44.44231],[-89.28614,44.44187],[-89.2871,44.44128],[-89.28674,44.44075],[-89.28627,44.44005],[-89.28614,44.43925],[-89.2857,44.43764],[-89.28621,44.43662],[-89.28666,44.43557],[-89.28675,44.43536],[-89.28704,44.43479],[-89.28701,44.43424],[-89.2865,44.43408],[-89.2858,44.43355],[-89.28503,44.43291],[-89.28401,44.43261],[-89.28283,44.43282],[-89.27977,44.43261],[-89.27715,44.43215],[-89.27665,44.4317],[-89.27614,44.43112],[-89.27623,44.43025],[-89.27655,44.42968],[-89.2762,44.42952],[-89.27394,44.42941],[-89.27371,44.429],[-89.27423,44.42852],[-89.27375,44.42813],[-89.27225,44.42833],[-89.27081,44.42867],[-89.27126,44.42941],[-89.27097,44.43004],[-89.27005,44.42972],[-89.26902,44.42936],[-89.26893,44.42879],[-89.26762,44.42824],[-89.26785,44.42714],[-89.26878,44.4262],[-89.27008,44.42527],[-89.26996,44.42481],[-89.269,44.42465],[-89.26801,44.42494],[-89.26773,44.42456],[-89.26821,44.42371],[-89.26891,44.42351],[-89.26929,44.42389],[-89.27012,44.42403],[-89.2706,44.42374],[-89.27092,44.4231],[-89.2706,44.42271],[-89.27057,44.42186],[-89.27022,44.4209],[-89.2699,44.42072],[-89.26968,44.4212],[-89.26913,44.42145],[-89.26894,44.42067],[-89.26725,44.41989],[-89.26671,44.41998],[-89.26706,44.42053],[-89.26693,44.42081],[-89.26575,44.42101],[-89.26473,44.42055],[-89.26387,44.42037],[-89.26241,44.4208],[-89.26065,44.42181],[-89.25854,44.42267],[-89.25497,44.42267],[-89.25411,44.42221],[-89.25341,44.42201],[-89.25245,44.42214],[-89.25191,44.42182],[-89.25159,44.42125],[-89.25143,44.42098],[-89.25125,44.41937],[-89.25106,44.41798],[-89.25023,44.41697],[-89.25071,44.41551],[-89.25224,44.41499],[-89.25384,44.41513],[-89.25521,44.41542],[-89.25607,44.41588],[-89.25661,44.41664],[-89.25715,44.41677],[-89.25926,44.41641],[-89.26041,44.41595],[-89.26127,44.41607],[-89.26181,44.41602],[-89.26203,44.415],[-89.26245,44.41411],[-89.26168,44.41378],[-89.26181,44.41335],[-89.26264,44.41337],[-89.26315,44.41267],[-89.26418,44.41061],[-89.26542,44.4094],[-89.26645,44.40867],[-89.26785,44.40851],[-89.2682,44.40803],[-89.26788,44.40734],[-89.26699,44.407],[-89.26721,44.40654],[-89.2675,44.4054],[-89.26798,44.40492],[-89.26859,44.4046],[-89.26849,44.40401],[-89.2692,44.40371],[-89.26961,44.40307],[-89.27105,44.40172],[-89.27146,44.40179],[-89.27178,44.40214],[-89.27245,44.40184],[-89.27481,44.40093],[-89.27532,44.40104],[-89.27554,44.40145],[-89.27602,44.40125],[-89.27676,44.40102],[-89.27756,44.40045],[-89.27749,44.39967],[-89.27733,44.39919],[-89.27746,44.39853],[-89.27826,44.39828],[-89.27813,44.39782],[-89.27724,44.39739],[-89.27622,44.3975],[-89.27606,44.39677]]}}]}